NORAD_CAT_ID,OBJECT_NAME,OBJECT_TYPE,EPOCH,MEAN_MOTION,ECCENTRICITY,INCLINATION,RA_OF_ASC_NODE,ARG_OF_PERICENTER,MEAN_ANOMALY,BSTAR,MEAN_MOTION_DOT,MEAN_MOTION_DDOT,TLE_LINE0,TLE_LINE1,TLE_LINE2,SEMIMAJOR_AXIS,PERIOD,APOGEE,PERIGEE,DECAYED
52454.0,STARLINK-3888,PAYLOAD,2023-08-13 11:45:59,15.08838892,9.59e-05,53.2161,325.3502,93.7242,266.386,8.0022e-05,9.86e-06,0.0,0 STARLINK-3888,1 52454U 22049D   23225.49027223  .00000986  00000-0  80022-4 0  9999,2 52454  53.2161 325.3502 0000959  93.7242 266.3860 15.08838892 70482,6917.884,95.438,540.412,539.085,0.0
52454.0,STARLINK-3888,PAYLOAD,2023-08-13 19:42:54,15.08848643,9.88e-05,53.2167,323.8633,97.9576,262.1528,0.00021858,3.193e-05,0.0,0 STARLINK-3888,1 52454U 22049D   23225.82146777  .00003193  00000-0  21858-3 0  9996,2 52454  53.2167 323.8633 0000988  97.9576 262.1528 15.08848643 70530,6917.854,95.437,540.402,539.035,0.0
52454.0,STARLINK-3888,PAYLOAD,2023-08-14 10:01:23,15.08834035,0.0001086,53.2152,321.1852,103.676,256.4353,-2.2574e-05,-6.47e-06,0.0,0 STARLINK-3888,1 52454U 22049D   23226.41763562 -.00000647  00000-0 -22574-4 0  9999,2 52454  53.2152 321.1852 0001086 103.6760 256.4353 15.08834035 70620,6917.899,95.438,540.515,539.012,0.0
52454.0,STARLINK-3888,PAYLOAD,2023-08-14 17:58:18,15.08846099,9.4e-05,53.2182,319.7015,91.028,269.0819,9.1648e-05,1.171e-05,0.0,0 STARLINK-3888,1 52454U 22049D   23226.74882869  .00001171  00000-0  91648-4 0  9996,2 52454  53.2182 319.7015 0000940  91.0280 269.0819 15.08846099 70677,6917.862,95.437,540.377,539.076,0.0
52454.0,STARLINK-3888,PAYLOAD,2023-08-14 22:44:28,15.08838894,0.0001066,53.2192,318.8072,98.6725,261.4388,1.4523e-06,-2.65e-06,0.0,0 STARLINK-3888,1 52454U 22049D   23226.94755304 -.00000265  00000-0  14523-5 0  9993,2 52454  53.2192 318.8072 0001066  98.6725 261.4388 15.08838894 70703,6917.884,95.438,540.486,539.011,0.0
52454.0,STARLINK-3888,PAYLOAD,2023-08-15 11:27:33,15.08846296,9.29e-05,53.2172,316.431,100.729,259.3807,0.00021766,3.179e-05,0.0,0 STARLINK-3888,1 52454U 22049D   23227.47746895  .00003179  00000-0  21766-3 0  9998,2 52454  53.2172 316.4310 0000929 100.7290 259.3807 15.08846296 70784,6917.861,95.437,540.369,539.083,0.0
52454.0,STARLINK-3888,PAYLOAD,2023-08-16 09:42:57,15.08837163,0.0001091,53.2179,312.2693,95.9231,264.1885,-1.9367e-05,-5.96e-06,0.0,0 STARLINK-3888,1 52454U 22049D   23228.40483442 -.00000596  00000-0 -19367-4 0  9995,2 52454  53.2179 312.2693 0001091  95.9231 264.1885 15.08837163 70929,6917.889,95.438,540.509,538.999,0.0
52454.0,STARLINK-3888,PAYLOAD,2023-08-17 09:33:44,15.08844011,0.0001201,53.2179,307.8093,98.3362,261.7766,0.00015272,2.144e-05,0.0,0 STARLINK-3888,1 52454U 22049D   23229.39843242  .00002144  00000-0  15272-3 0  9991,2 52454  53.2179 307.8093 0001201  98.3362 261.7766 15.08844011 71076,6917.868,95.437,540.564,538.902,0.0
52454.0,STARLINK-3888,PAYLOAD,2023-08-18 04:38:22,15.08836413,0.0001274,53.2177,304.2416,94.1743,265.9395,0.00010991,1.462e-05,0.0,0 STARLINK-3888,1 52454U 22049D   23230.19331738  .00001462  00000-0  10991-3 0  9998,2 52454  53.2177 304.2416 0001274  94.1743 265.9395 15.08836413 71195,6917.891,95.438,540.638,538.875,0.0
52454.0,STARLINK-3888,PAYLOAD,2023-08-19 10:50:41,15.08850264,0.0001391,53.218,298.591,87.0212,273.0939,0.00019511,2.819e-05,0.0,0 STARLINK-3888,1 52454U 22049D   23231.45187261  .00002819  00000-0  19511-3 0  9992,2 52454  53.2180 298.5910 0001391  87.0212 273.0939 15.08850264 71380,6917.849,95.437,540.676,538.752,0.0
52454.0,STARLINK-3888,PAYLOAD,2023-08-20 04:19:56,15.08837861,0.0001161,53.2157,295.3208,83.4388,276.6737,0.00012593,1.717e-05,0.0,0 STARLINK-3888,1 52454U 22049D   23232.18051862  .00001717  00000-0  12593-3 0  9999,2 52454  53.2157 295.3208 0001161  83.4388 276.6737 15.08837861 71493,6917.887,95.438,540.555,538.949,0.0
52454.0,STARLINK-3888,PAYLOAD,2023-08-21 10:32:16,15.08845978,0.0001209,53.2174,289.6686,106.9227,253.1898,3.1392e-05,2.12e-06,0.0,0 STARLINK-3888,1 52454U 22049D   23233.43907488  .00000212  00000-0  31392-4 0  9990,2 52454  53.2174 289.6686 0001209 106.9227 253.1898 15.08845978 71681,6917.862,95.437,540.563,538.891,0.0
52454.0,STARLINK-3888,PAYLOAD,2023-08-22 04:01:30,15.08837183,0.0001186,53.2172,286.3982,100.3865,259.7261,0.00011019,1.466e-05,0.0,0 STARLINK-3888,1 52454U 22049D   23234.16771957  .00001466  00000-0  11019-3 0  9996,2 52454  53.2172 286.3982 0001186 100.3865 259.7261 15.08837183 71799,6917.889,95.438,540.574,538.934,0.0
52454.0,STARLINK-3888,PAYLOAD,2023-08-23 08:38:27,15.08840754,0.0001333,53.2173,281.0459,103.1358,256.9783,7.0821e-05,8.39e-06,0.0,0 STARLINK-3888,1 52454U 22049D   23235.36004001  .00000839  00000-0  70821-4 0  9998,2 52454  53.2173 281.0459 0001333 103.1358 256.9783 15.08840754 71979,6917.878,95.438,540.665,538.821,0.0
52454.0,STARLINK-3888,PAYLOAD,2023-08-24 10:04:38,15.0883561,0.0001347,53.2173,276.2878,101.9666,258.1477,3.6927e-05,3e-06,0.0,0 STARLINK-3888,1 52454U 22049D   23236.41988564  .00000300  00000-0  36927-4 0  9992,2 52454  53.2173 276.2878 0001347 101.9666 258.1477 15.08835610 71972,6917.894,95.438,540.691,538.827,0.0
52454.0,STARLINK-3888,PAYLOAD,2023-08-25 09:55:25,15.08839712,0.0001258,53.2166,271.8267,96.2189,263.8946,4.3081e-05,3.98e-06,0.0,0 STARLINK-3888,1 52454U 22049D   23237.41348517  .00000398  00000-0  43081-4 0  9997,2 52454  53.2166 271.8267 0001258  96.2189 263.8946 15.08839712 72123,6917.881,95.438,540.617,538.876,0.0
52454.0,STARLINK-3888,PAYLOAD,2023-08-26 01:49:16,15.08837618,0.0001283,53.2168,268.853,90.5602,269.5537,7.7763e-05,9.5e-06,0.0,0 STARLINK-3888,1 52454U 22049D   23238.07588708  .00000950  00000-0  77763-4 0  9996,2 52454  53.2168 268.8530 0001283  90.5602 269.5537 15.08837618 72389,6917.888,95.438,540.64,538.865,0.0
52454.0,STARLINK-3888,PAYLOAD,2023-08-26 09:46:12,15.08840492,0.0001304,53.2167,267.3661,87.5799,272.5343,9.7578e-05,1.265e-05,0.0,0 STARLINK-3888,1 52454U 22049D   23238.40708565  .00001265  00000-0  97578-4 0  9994,2 52454  53.2167 267.3661 0001304  87.5799 272.5343 15.08840492 72275,6917.879,95.438,540.646,538.842,0.0
52454.0,STARLINK-3888,PAYLOAD,2023-08-27 01:40:03,15.08840873,0.0001337,53.2166,264.3922,85.5808,274.5337,6.5709e-05,7.58e-06,0.0,0 STARLINK-3888,1 52454U 22049D   23239.06948709  .00000758  00000-0  65709-4 0  9990,2 52454  53.2166 264.3922 0001337  85.5808 274.5337 15.08840873 72375,6917.878,95.437,540.668,538.818,0.0
52454.0,STARLINK-3888,PAYLOAD,2023-08-28 01:30:50,15.08844145,0.0001399,53.2166,259.9324,80.4944,279.6207,7.426e-05,8.94e-06,0.0,0 STARLINK-3888,1 52454U 22049D   23240.06308378  .00000894  00000-0  74260-4 0  9997,2 52454  53.2166 259.9324 0001399  80.4944 279.6207 15.08844145 72686,6917.868,95.437,540.701,538.765,0.0
52454.0,STARLINK-3888,PAYLOAD,2023-08-28 07:52:22,15.08845715,0.0001294,53.2163,258.7419,90.8589,269.2552,7.6137e-05,9.24e-06,0.0,0 STARLINK-3888,1 52454U 22049D   23240.32804132  .00000924  00000-0  76137-4 0  9994,2 52454  53.2163 258.7419 0001294  90.8589 269.2552 15.08845715 72568,6917.863,95.437,540.623,538.833,0.0
52454.0,STARLINK-3888,PAYLOAD,2023-08-29 01:21:37,15.0884011,0.0001432,53.2166,255.4716,93.9673,266.1483,2.0844e-05,4.4e-07,0.0,0 STARLINK-3888,1 52454U 22049D   23241.05668538  .00000044  00000-0  20844-4 0  9990,2 52454  53.2166 255.4716 0001432  93.9673 266.1483 15.08840110 72830,6917.88,95.438,540.736,538.754,0.0
52454.0,STARLINK-3888,PAYLOAD,2023-08-29 07:43:10,15.08839306,0.0001384,53.2164,254.2815,94.322,265.793,9.778e-06,-1.32e-06,0.0,0 STARLINK-3888,1 52454U 22049D   23241.32164592 -.00000132  00000-0  97780-5 0  9994,2 52454  53.2164 254.2815 0001384  94.3220 265.7930 15.08839306 72718,6917.883,95.438,540.705,538.79,0.0
52454.0,STARLINK-3888,PAYLOAD,2023-08-30 05:58:31,15.08871953,0.0001399,53.2164,250.118,103.4162,256.6986,0.00028267,4.217e-05,0.0,0 STARLINK-3888,1 52454U 22049D   23242.24897453  .00004217  00000-0  28267-3 0  9994,2 52454  53.2164 250.1180 0001399 103.4162 256.6986 15.08871953 73019,6917.783,95.436,540.616,538.68,0.0
52454.0,STARLINK-3888,PAYLOAD,2023-08-30 17:06:14,15.08852044,0.0001523,53.2167,248.0384,86.5404,273.5762,4.5898e-05,4.43e-06,0.0,0 STARLINK-3888,1 52454U 22049D   23242.71266671  .00000443  00000-0  45898-4 0  9995,2 52454  53.2167 248.0384 0001523  86.5404 273.5762 15.08852044 72922,6917.844,95.437,540.762,538.655,0.0
52454.0,STARLINK-3888,PAYLOAD,2023-08-31 01:03:10,15.08842914,0.0002316,53.2173,246.5528,87.0196,273.1061,9.0556e-05,1.153e-05,0.0,0 STARLINK-3888,1 52454U 22049D   23243.04387333  .00001153  00000-0  90556-4 0  9991,2 52454  53.2173 246.5528 0002316  87.0196 273.1061 15.08842914 73134,6917.871,95.437,541.339,538.134,0.0
52454.0,STARLINK-3888,PAYLOAD,2023-09-01 00:53:59,15.0884419,0.0001394,53.2176,242.0926,96.3192,263.7959,-0.00028064,-4.752e-05,0.0,0 STARLINK-3888,1 52454U 22049D   23244.03748853 -.00004752  00000-0 -28064-3 0  9993,2 52454  53.2176 242.0926 0001394  96.3192 263.7959 15.08844190 73289,6917.868,95.437,540.697,538.768,0.0
52454.0,STARLINK-3888,PAYLOAD,2023-09-01 16:47:50,15.0882414,0.0001516,53.2163,239.1179,105.2536,254.8624,4.2711e-05,3.92e-06,0.0,0 STARLINK-3888,1 52454U 22049D   23244.69989236  .00000392  00000-0  42711-4 0  9997,2 52454  53.2163 239.1179 0001516 105.2536 254.8624 15.08824140 73384,6917.929,95.439,540.843,538.745,0.0
52454.0,STARLINK-3888,PAYLOAD,2023-09-02 00:44:46,15.08830897,0.000102,53.2122,237.6275,90.2506,269.8603,8.0933e-05,1e-05,0.0,0 STARLINK-3888,1 52454U 22049D   23245.03108846  .00001000  00000-0  80933-4 0  9991,2 52454  53.2122 237.6275 0001020  90.2506 269.8603 15.08830897 73434,6917.908,95.438,540.479,539.068,0.0
52454.0,STARLINK-3888,PAYLOAD,2023-09-02 16:38:36,15.08842818,0.0001248,53.2164,234.6552,91.0751,269.0384,5.5798e-05,6e-06,0.0,0 STARLINK-3888,1 52454U 22049D   23245.69348263  .00000600  00000-0  55798-4 0  9998,2 52454  53.2164 234.6552 0001248  91.0751 269.0384 15.08842818 73533,6917.872,95.437,540.6,538.873,0.0
